IRIDIUM 150             
1 43257U 18030J   24216.53295679  .00000253  00000+0  83320-4 0  9993
2 43257  86.3967 215.7351 0002233  81.9956 278.1494 14.34218771332319
IRIDIUM 143             
1 43258U 18030K   24216.44415854  .00000204  00000+0  65889-4 0  9999
2 43258  86.3971 215.8381 0002117  82.4835 277.6601 14.34219663332238
IRIDIUM 161             
1 43478U 18047C   24216.46822257 -.00000422  00000+0 -13136-3 0  9993
2 43478  86.4502  13.7734 0001867  87.8322 272.3092 14.43278250326664
IRIDIUM 152             
1 43479U 18047D   24215.85872891  .00000305  00000+0  10190-3 0  9990
2 43479  86.3978  13.8873 0002188  90.3425 269.8022 14.34219187324549
IRIDIUM 147             
1 43480U 18047E   24216.49298769  .00000199  00000+0  63928-4 0  9998
2 43480  86.3981  13.6152 0002208  93.4411 266.7037 14.34217794324639
IRIDIUM 110             
1 43481U 18047F   24216.49933160  .00000008  00000+0 -42013-5 0  9993
2 43481  86.3980  13.6870 0002403  98.0774 262.0695 14.34217725324628
IRIDIUM 162             
1 43482U 18047G   24215.69931656  .00000794  00000+0  23001-3 0  9998
2 43482  86.4502  13.9939 0002249  89.1571 270.9888 14.43293805326541
IRIDIUM 160             
1 43569U 18061A   24216.58470455  .00000201  00000+0  64708-4 0  9997
2 43569  86.4010 342.0426 0002193 104.4641 255.6798 14.34218331315533
